CCSDS_OMM_VERS = 2.0
CREATION_DATE  = 
ORIGINATOR     = 

OBJECT_NAME    = FLOCK 4H-32
OBJECT_ID      = 2025-276BX
CENTER_NAME    = EARTH
REF_FRAME      = TEME
TIME_SYSTEM    = UTC
MEAN_ELEMENT_THEORY = SGP/SGP4

EPOCH          = 2025-12-20T14:08:40.519104
MEAN_MOTION    = 15.17196131
ECCENTRICITY   = .0003479
INCLINATION    = 97.4439
RA_OF_ASC_NODE = 66.2154
ARG_OF_PERICENTER = 270.7049
MEAN_ANOMALY   = 89.3786

EPHEMERIS_TYPE = 0
CLASSIFICATION_TYPE = U
NORAD_CAT_ID   = 66735
ELEMENT_SET_NO = 999
REV_AT_EPOCH   = 331
BSTAR          = .29512E-3
MEAN_MOTION_DOT = .5799E-4
MEAN_MOTION_DDOT = 0

CCSDS_OMM_VERS = 2.0
CREATION_DATE  = 
ORIGINATOR     = 

OBJECT_NAME    = FLOCK 4H-33
OBJECT_ID      = 2025-276BY
CENTER_NAME    = EARTH
REF_FRAME      = TEME
TIME_SYSTEM    = UTC
MEAN_ELEMENT_THEORY = SGP/SGP4

EPOCH          = 2025-12-20T15:21:56.753280
MEAN_MOTION    = 15.18251167
ECCENTRICITY   = .00024087
INCLINATION    = 97.4438
RA_OF_ASC_NODE = 66.2998
ARG_OF_PERICENTER = 165.4272
MEAN_ANOMALY   = 194.7032

EPHEMERIS_TYPE = 0
CLASSIFICATION_TYPE = U
NORAD_CAT_ID   = 66736
ELEMENT_SET_NO = 999
REV_AT_EPOCH   = 332
BSTAR          = .31691447E-3
MEAN_MOTION_DOT = .6424E-4
MEAN_MOTION_DDOT = 0

CCSDS_OMM_VERS = 2.0
CREATION_DATE  = 
ORIGINATOR     = 

OBJECT_NAME    = FLOCK 4H-34
OBJECT_ID      = 2025-276BZ
CENTER_NAME    = EARTH
REF_FRAME      = TEME
TIME_SYSTEM    = UTC
MEAN_ELEMENT_THEORY = SGP/SGP4

EPOCH          = 2025-12-20T18:33:54.925632
MEAN_MOTION    = 15.18123748
ECCENTRICITY   = .00023695
INCLINATION    = 97.4446
RA_OF_ASC_NODE = 66.4324
ARG_OF_PERICENTER = 176.4713
MEAN_ANOMALY   = 183.6538

EPHEMERIS_TYPE = 0
CLASSIFICATION_TYPE = U
NORAD_CAT_ID   = 66737
ELEMENT_SET_NO = 999
REV_AT_EPOCH   = 259
BSTAR          = .31501398E-3
MEAN_MOTION_DOT = .6362E-4
MEAN_MOTION_DDOT = 0

CCSDS_OMM_VERS = 2.0
CREATION_DATE  = 
ORIGINATOR     = 

OBJECT_NAME    = FLOCK 4H-35
OBJECT_ID      = 2025-276CA
CENTER_NAME    = EARTH
REF_FRAME      = TEME
TIME_SYSTEM    = UTC
MEAN_ELEMENT_THEORY = SGP/SGP4

EPOCH          = 2025-12-20T15:21:57.258720
MEAN_MOTION    = 15.18174860
ECCENTRICITY   = .00027132
INCLINATION    = 97.4409
RA_OF_ASC_NODE = 66.2926
ARG_OF_PERICENTER = 146.7993
MEAN_ANOMALY   = 213.3412

EPHEMERIS_TYPE = 0
CLASSIFICATION_TYPE = U
NORAD_CAT_ID   = 66738
ELEMENT_SET_NO = 999
REV_AT_EPOCH   = 261
BSTAR          = -.61954312E-3
MEAN_MOTION_DOT = -.12695E-3
MEAN_MOTION_DDOT = 0

CCSDS_OMM_VERS = 2.0
CREATION_DATE  = 
ORIGINATOR     = 

OBJECT_NAME    = FLOCK 4H-36
OBJECT_ID      = 2025-276CB
CENTER_NAME    = EARTH
REF_FRAME      = TEME
TIME_SYSTEM    = UTC
MEAN_ELEMENT_THEORY = SGP/SGP4

EPOCH          = 2025-12-20T18:37:04.368000
MEAN_MOTION    = 15.17966202
ECCENTRICITY   = .00022234
INCLINATION    = 97.4460
RA_OF_ASC_NODE = 66.4323
ARG_OF_PERICENTER = 190.9802
MEAN_ANOMALY   = 169.1384

EPHEMERIS_TYPE = 0
CLASSIFICATION_TYPE = U
NORAD_CAT_ID   = 66739
ELEMENT_SET_NO = 999
REV_AT_EPOCH   = 334
BSTAR          = .31540846E-3
MEAN_MOTION_DOT = .6341E-4
MEAN_MOTION_DDOT = 0

CCSDS_OMM_VERS = 2.0
CREATION_DATE  = 
ORIGINATOR     = 

OBJECT_NAME    = TRANSPORTER-15 CC
OBJECT_ID      = 2025-276CC
CENTER_NAME    = EARTH
REF_FRAME      = TEME
TIME_SYSTEM    = UTC
MEAN_ELEMENT_THEORY = SGP/SGP4

EPOCH          = 2025-12-20T18:43:23.101536
MEAN_MOTION    = 15.17678791
ECCENTRICITY   = .00020142
INCLINATION    = 97.4421
RA_OF_ASC_NODE = 66.4186
ARG_OF_PERICENTER = 249.0766
MEAN_ANOMALY   = 111.0252

EPHEMERIS_TYPE = 0
CLASSIFICATION_TYPE = U
NORAD_CAT_ID   = 66740
ELEMENT_SET_NO = 999
REV_AT_EPOCH   = 334
BSTAR          = .31409268E-3
MEAN_MOTION_DOT = .6262E-4
MEAN_MOTION_DDOT = 0

CCSDS_OMM_VERS = 2.0
CREATION_DATE  = 
ORIGINATOR     = 

OBJECT_NAME    = TRANSPORTER-15 CD
OBJECT_ID      = 2025-276CD
CENTER_NAME    = EARTH
REF_FRAME      = TEME
TIME_SYSTEM    = UTC
MEAN_ELEMENT_THEORY = SGP/SGP4

EPOCH          = 2025-12-20T15:35:26.593440
MEAN_MOTION    = 15.16370519
ECCENTRICITY   = .00149164
INCLINATION    = 97.4418
RA_OF_ASC_NODE = 66.2803
ARG_OF_PERICENTER = 254.9889
MEAN_ANOMALY   = 104.9694

EPHEMERIS_TYPE = 0
CLASSIFICATION_TYPE = U
NORAD_CAT_ID   = 66741
ELEMENT_SET_NO = 999
REV_AT_EPOCH   = 332
BSTAR          = -.21786228E-1
MEAN_MOTION_DOT = -.401721E-2
MEAN_MOTION_DDOT = 0

CCSDS_OMM_VERS = 2.0
CREATION_DATE  = 
ORIGINATOR     = 

OBJECT_NAME    = TRANSPORTER-15 CE
OBJECT_ID      = 2025-276CE
CENTER_NAME    = EARTH
REF_FRAME      = TEME
TIME_SYSTEM    = UTC
MEAN_ELEMENT_THEORY = SGP/SGP4

EPOCH          = 2025-12-20T18:42:34.070400
MEAN_MOTION    = 15.17675656
ECCENTRICITY   = .00014452
INCLINATION    = 97.4414
RA_OF_ASC_NODE = 66.4090
ARG_OF_PERICENTER = 197.3986
MEAN_ANOMALY   = 162.7199

EPHEMERIS_TYPE = 0
CLASSIFICATION_TYPE = U
NORAD_CAT_ID   = 66742
ELEMENT_SET_NO = 999
REV_AT_EPOCH   = 334
BSTAR          = .26922868E-3
MEAN_MOTION_DOT = .5357E-4
MEAN_MOTION_DDOT = 0

CCSDS_OMM_VERS = 2.0
CREATION_DATE  = 
ORIGINATOR     = 

OBJECT_NAME    = TRANSPORTER-15 CF
OBJECT_ID      = 2025-276CF
CENTER_NAME    = EARTH
REF_FRAME      = TEME
TIME_SYSTEM    = UTC
MEAN_ELEMENT_THEORY = SGP/SGP4

EPOCH          = 2025-12-20T14:02:27.208032
MEAN_MOTION    = 15.17478854
ECCENTRICITY   = .0000442
INCLINATION    = 97.4415
RA_OF_ASC_NODE = 66.2101
ARG_OF_PERICENTER = 253.2504
MEAN_ANOMALY   = 106.8681

EPHEMERIS_TYPE = 0
CLASSIFICATION_TYPE = U
NORAD_CAT_ID   = 66743
ELEMENT_SET_NO = 999
REV_AT_EPOCH   = 331
BSTAR          = .28859E-3
MEAN_MOTION_DOT = .5715E-4
MEAN_MOTION_DDOT = 0

CCSDS_OMM_VERS = 2.0
CREATION_DATE  = 
ORIGINATOR     = 

OBJECT_NAME    = TRANSPORTER-15 CG
OBJECT_ID      = 2025-276CG
CENTER_NAME    = EARTH
REF_FRAME      = TEME
TIME_SYSTEM    = UTC
MEAN_ELEMENT_THEORY = SGP/SGP4

EPOCH          = 2025-12-20T14:04:10.309152
MEAN_MOTION    = 15.17311588
ECCENTRICITY   = .0001515
INCLINATION    = 97.4424
RA_OF_ASC_NODE = 66.2178
ARG_OF_PERICENTER = 256.8671
MEAN_ANOMALY   = 103.2393

EPHEMERIS_TYPE = 0
CLASSIFICATION_TYPE = U
NORAD_CAT_ID   = 66744
ELEMENT_SET_NO = 999
REV_AT_EPOCH   = 331
BSTAR          = .27211E-3
MEAN_MOTION_DOT = .5359E-4
MEAN_MOTION_DDOT = 0

CCSDS_OMM_VERS = 2.0
CREATION_DATE  = 
ORIGINATOR     = 

OBJECT_NAME    = TRANSPORTER-15 CH
OBJECT_ID      = 2025-276CH
CENTER_NAME    = EARTH
REF_FRAME      = TEME
TIME_SYSTEM    = UTC
MEAN_ELEMENT_THEORY = SGP/SGP4

EPOCH          = 2025-12-20T18:47:36.300192
MEAN_MOTION    = 15.17320153
ECCENTRICITY   = .00021069
INCLINATION    = 97.4415
RA_OF_ASC_NODE = 66.4078
ARG_OF_PERICENTER = 34.5673
MEAN_ANOMALY   = 325.5698

EPHEMERIS_TYPE = 0
CLASSIFICATION_TYPE = U
NORAD_CAT_ID   = 66745
ELEMENT_SET_NO = 999
REV_AT_EPOCH   = 334
BSTAR          = -.15313188E-2
MEAN_MOTION_DOT = -.30451E-3
MEAN_MOTION_DDOT = 0

CCSDS_OMM_VERS = 2.0
CREATION_DATE  = 
ORIGINATOR     = 

OBJECT_NAME    = TRANSPORTER-15 CJ
OBJECT_ID      = 2025-276CJ
CENTER_NAME    = EARTH
REF_FRAME      = TEME
TIME_SYSTEM    = UTC
MEAN_ELEMENT_THEORY = SGP/SGP4

EPOCH          = 2025-12-19T04:48:03.204576
MEAN_MOTION    = 15.17416472
ECCENTRICITY   = .00009628
INCLINATION    = 97.4422
RA_OF_ASC_NODE = 64.8535
ARG_OF_PERICENTER = 234.0891
MEAN_ANOMALY   = 126.0254

EPHEMERIS_TYPE = 0
CLASSIFICATION_TYPE = U
NORAD_CAT_ID   = 66746
ELEMENT_SET_NO = 999
REV_AT_EPOCH   = 310
BSTAR          = .13979791E-3
MEAN_MOTION_DOT = .2728E-4
MEAN_MOTION_DDOT = 0

