FLOCK 4H-32             
1 66735U 25276BX  25354.58935786  .00005799  00000+0  29512-3 0  9990
2 66735  97.4439  66.2154 0003479 270.7049  89.3786 15.17196131  3314
FLOCK 4H-33             
1 66736U 25276BY  25354.64024020  .00006424  00000+0  31691-3 0  9995
2 66736  97.4438  66.2998 0002408 165.4272 194.7032 15.18251167  3327
FLOCK 4H-34             
1 66737U 25276BZ  25354.77355238  .00006362  00000+0  31501-3 0  9999
2 66737  97.4446  66.4324 0002369 176.4713 183.6538 15.18123748  2599
FLOCK 4H-35             
1 66738U 25276CA  25354.64024605 -.00012695  00000+0 -61954-3 0  9990
2 66738  97.4409  66.2926 0002713 146.7993 213.3412 15.18174860  2614
FLOCK 4H-36             
1 66739U 25276CB  25354.77574500  .00006341  00000+0  31541-3 0  9997
2 66739  97.4460  66.4323 0002223 190.9802 169.1384 15.17966202  3346
TRANSPORTER-15 CC       
1 66740U 25276CC  25354.78012849  .00006262  00000+0  31409-3 0  9998
2 66740  97.4421  66.4186 0002014 249.0766 111.0252 15.17678791  3348
TRANSPORTER-15 CD       
1 66741U 25276CD  25354.64961335 -.00401721  00000+0 -21786-1 0  9993
2 66741  97.4418  66.2803 0014916 254.9889 104.9694 15.16370519  3329
TRANSPORTER-15 CE       
1 66742U 25276CE  25354.77956100  .00005357  00000+0  26923-3 0  9995
2 66742  97.4414  66.4090 0001445 197.3986 162.7199 15.17675656  3342
TRANSPORTER-15 CF       
1 66743U 25276CF  25354.58503713  .00005715  00000+0  28859-3 0  9991
2 66743  97.4415  66.2101 0000442 253.2504 106.8681 15.17478854  3312
TRANSPORTER-15 CG       
1 66744U 25276CG  25354.58623043  .00005359  00000+0  27211-3 0  9996
2 66744  97.4424  66.2178 0001515 256.8671 103.2393 15.17311588  3314
TRANSPORTER-15 CH       
1 66745U 25276CH  25354.78305903 -.00030451  00000+0 -15313-2 0  9993
2 66745  97.4415  66.4078 0002106  34.5673 325.5698 15.17320153  3344
TRANSPORTER-15 CJ       
1 66746U 25276CJ  25353.20003709  .00002728  00000+0  13980-3 0  9992
2 66746  97.4422  64.8535 0000962 234.0891 126.0254 15.17416472  3106
